{"fetched_at":"2026-07-15T06:35:39.467Z","source":"https://celestrak.org/NORAD/elements/gp.php?GROUP=qianfan&FORMAT=JSON","constellation":"qianfan","records":[{"OBJECT_NAME":"QIANFAN-177","OBJECT_ID":"2026-124N","EPOCH":"2026-07-14T04:50:18.316032","CLASSIFICATION_TYPE":"U","MEAN_MOTION":13.99755302,"ECCENTRICITY":0.0007531,"INCLINATION":88.9987,"RA_OF_ASC_NODE":358.9748,"ARG_OF_PERICENTER":69.8144,"MEAN_ANOMALY":290.3844,"EPHEMERIS_TYPE":0,"NORAD_CAT_ID":69394,"ELEMENT_SET_NO":999,"REV_AT_EPOCH":564,"BSTAR":-0.000016184,"MEAN_MOTION_DOT":-1e-7,"MEAN_MOTION_DDOT":0},{"OBJECT_NAME":"QIANFAN-178","OBJECT_ID":"2026-124P","EPOCH":"2026-07-14T16:44:41.619552","CLASSIFICATION_TYPE":"U","MEAN_MOTION":13.98827236,"ECCENTRICITY":0.00086408,"INCLINATION":88.9986,"RA_OF_ASC_NODE":358.9183,"ARG_OF_PERICENTER":81.6618,"MEAN_ANOMALY":278.554,"EPHEMERIS_TYPE":0,"NORAD_CAT_ID":69395,"ELEMENT_SET_NO":999,"REV_AT_EPOCH":571,"BSTAR":-1.4288816,"MEAN_MOTION_DOT":-0.0191956,"MEAN_MOTION_DDOT":0},{"OBJECT_NAME":"QIANFAN-179","OBJECT_ID":"2026-124Q","EPOCH":"2026-07-14T14:39:55.897632","CLASSIFICATION_TYPE":"U","MEAN_MOTION":13.98222332,"ECCENTRICITY":0.0009161,"INCLINATION":88.999,"RA_OF_ASC_NODE":358.925,"ARG_OF_PERICENTER":72.5882,"MEAN_ANOMALY":287.6297,"EPHEMERIS_TYPE":0,"NORAD_CAT_ID":69396,"ELEMENT_SET_NO":999,"REV_AT_EPOCH":570,"BSTAR":-1.5511954,"MEAN_MOTION_DOT":-0.02052062,"MEAN_MOTION_DDOT":0},{"OBJECT_NAME":"QIANFAN-180","OBJECT_ID":"2026-124R","EPOCH":"2026-07-14T14:43:02.550144","CLASSIFICATION_TYPE":"U","MEAN_MOTION":13.96512885,"ECCENTRICITY":0.00120845,"INCLINATION":88.9991,"RA_OF_ASC_NODE":358.9243,"ARG_OF_PERICENTER":80.2602,"MEAN_ANOMALY":279.9939,"EPHEMERIS_TYPE":0,"NORAD_CAT_ID":69397,"ELEMENT_SET_NO":999,"REV_AT_EPOCH":570,"BSTAR":-1.6181308,"MEAN_MOTION_DOT":-0.02076079,"MEAN_MOTION_DDOT":0},{"OBJECT_NAME":"QIANFAN-181","OBJECT_ID":"2026-124S","EPOCH":"2026-07-14T17:03:35.493408","CLASSIFICATION_TYPE":"U","MEAN_MOTION":13.87412831,"ECCENTRICITY":0.00033576,"INCLINATION":89.0002,"RA_OF_ASC_NODE":358.9591,"ARG_OF_PERICENTER":7.9238,"MEAN_ANOMALY":352.1987,"EPHEMERIS_TYPE":0,"NORAD_CAT_ID":69398,"ELEMENT_SET_NO":999,"REV_AT_EPOCH":569,"BSTAR":-1.8325753,"MEAN_MOTION_DOT":-0.02012126,"MEAN_MOTION_DDOT":0},{"OBJECT_NAME":"QIANFAN-182","OBJECT_ID":"2026-124T","EPOCH":"2026-07-14T20:59:34.396224","CLASSIFICATION_TYPE":"U","MEAN_MOTION":13.92327442,"ECCENTRICITY":0.00070631,"INCLINATION":89.0009,"RA_OF_ASC_NODE":358.9253,"ARG_OF_PERICENTER":72.6074,"MEAN_ANOMALY":287.5873,"EPHEMERIS_TYPE":0,"NORAD_CAT_ID":69399,"ELEMENT_SET_NO":999,"REV_AT_EPOCH":571,"BSTAR":0.000013266554,"MEAN_MOTION_DOT":3e-7,"MEAN_MOTION_DDOT":0},{"OBJECT_NAME":"QIANFAN-183","OBJECT_ID":"2026-125A","EPOCH":"2026-07-14T16:28:14.778624","CLASSIFICATION_TYPE":"U","MEAN_MOTION":13.9511584,"ECCENTRICITY":0.00222783,"INCLINATION":88.9941,"RA_OF_ASC_NODE":277.3567,"ARG_OF_PERICENTER":90.8268,"MEAN_ANOMALY":269.5461,"EPHEMERIS_TYPE":0,"NORAD_CAT_ID":69401,"ELEMENT_SET_NO":999,"REV_AT_EPOCH":558,"BSTAR":-1.5266499,"MEAN_MOTION_DOT":-0.01924605,"MEAN_MOTION_DDOT":0},{"OBJECT_NAME":"QIANFAN-184","OBJECT_ID":"2026-125B","EPOCH":"2026-07-14T21:24:23.319648","CLASSIFICATION_TYPE":"U","MEAN_MOTION":13.96804876,"ECCENTRICITY":0.001878,"INCLINATION":88.9951,"RA_OF_ASC_NODE":277.3322,"ARG_OF_PERICENTER":79.7982,"MEAN_ANOMALY":280.5312,"EPHEMERIS_TYPE":0,"NORAD_CAT_ID":69402,"ELEMENT_SET_NO":999,"REV_AT_EPOCH":561,"BSTAR":0.000018601882,"MEAN_MOTION_DOT":4e-7,"MEAN_MOTION_DDOT":0},{"OBJECT_NAME":"QIANFAN-185","OBJECT_ID":"2026-125C","EPOCH":"2026-07-14T14:29:06.842688","CLASSIFICATION_TYPE":"U","MEAN_MOTION":14.01348376,"ECCENTRICITY":0.00158179,"INCLINATION":88.9942,"RA_OF_ASC_NODE":277.3631,"ARG_OF_PERICENTER":78.8045,"MEAN_ANOMALY":281.4911,"EPHEMERIS_TYPE":0,"NORAD_CAT_ID":69403,"ELEMENT_SET_NO":999,"REV_AT_EPOCH":557,"BSTAR":-1.3576264,"MEAN_MOTION_DOT":-0.01909252,"MEAN_MOTION_DDOT":0},{"OBJECT_NAME":"QIANFAN-186","OBJECT_ID":"2026-125D","EPOCH":"2026-07-14T17:37:05.269728","CLASSIFICATION_TYPE":"U","MEAN_MOTION":13.933707,"ECCENTRICITY":0.00201463,"INCLINATION":88.9949,"RA_OF_ASC_NODE":277.3453,"ARG_OF_PERICENTER":81.1281,"MEAN_ANOMALY":279.2174,"EPHEMERIS_TYPE":0,"NORAD_CAT_ID":69404,"ELEMENT_SET_NO":999,"REV_AT_EPOCH":559,"BSTAR":-1.5764901,"MEAN_MOTION_DOT":-0.01927005,"MEAN_MOTION_DDOT":0},{"OBJECT_NAME":"QIANFAN-187","OBJECT_ID":"2026-125E","EPOCH":"2026-07-14T17:05:10.408128","CLASSIFICATION_TYPE":"U","MEAN_MOTION":13.95734098,"ECCENTRICITY":0.00248593,"INCLINATION":88.9938,"RA_OF_ASC_NODE":277.3415,"ARG_OF_PERICENTER":82.5381,"MEAN_ANOMALY":277.8619,"EPHEMERIS_TYPE":0,"NORAD_CAT_ID":69405,"ELEMENT_SET_NO":999,"REV_AT_EPOCH":559,"BSTAR":-1.5684745,"MEAN_MOTION_DOT":-0.01994843,"MEAN_MOTION_DDOT":0},{"OBJECT_NAME":"QIANFAN-188","OBJECT_ID":"2026-125F","EPOCH":"2026-07-14T16:24:27.935424","CLASSIFICATION_TYPE":"U","MEAN_MOTION":13.97058883,"ECCENTRICITY":0.00242795,"INCLINATION":88.9934,"RA_OF_ASC_NODE":277.3375,"ARG_OF_PERICENTER":88.9691,"MEAN_ANOMALY":271.4268,"EPHEMERIS_TYPE":0,"NORAD_CAT_ID":69406,"ELEMENT_SET_NO":999,"REV_AT_EPOCH":559,"BSTAR":-1.4940928,"MEAN_MOTION_DOT":-0.01947927,"MEAN_MOTION_DDOT":0},{"OBJECT_NAME":"QIANFAN-189","OBJECT_ID":"2026-125G","EPOCH":"2026-07-14T21:56:27.331872","CLASSIFICATION_TYPE":"U","MEAN_MOTION":13.99491866,"ECCENTRICITY":0.00186875,"INCLINATION":88.995,"RA_OF_ASC_NODE":277.3159,"ARG_OF_PERICENTER":82.2614,"MEAN_ANOMALY":278.0686,"EPHEMERIS_TYPE":0,"NORAD_CAT_ID":69407,"ELEMENT_SET_NO":999,"REV_AT_EPOCH":561,"BSTAR":-0.000003375576,"MEAN_MOTION_DOT":9e-8,"MEAN_MOTION_DDOT":0},{"OBJECT_NAME":"QIANFAN-190","OBJECT_ID":"2026-125H","EPOCH":"2026-07-14T21:50:13.049664","CLASSIFICATION_TYPE":"U","MEAN_MOTION":13.9834383,"ECCENTRICITY":0.00193135,"INCLINATION":88.9949,"RA_OF_ASC_NODE":277.3162,"ARG_OF_PERICENTER":82.6346,"MEAN_ANOMALY":277.7026,"EPHEMERIS_TYPE":0,"NORAD_CAT_ID":69408,"ELEMENT_SET_NO":999,"REV_AT_EPOCH":562,"BSTAR":-0.000007159776,"MEAN_MOTION_DOT":4e-8,"MEAN_MOTION_DDOT":0},{"OBJECT_NAME":"QIANFAN-191","OBJECT_ID":"2026-125J","EPOCH":"2026-07-14T14:28:47.483040","CLASSIFICATION_TYPE":"U","MEAN_MOTION":13.96169864,"ECCENTRICITY":0.00235736,"INCLINATION":88.9941,"RA_OF_ASC_NODE":277.3443,"ARG_OF_PERICENTER":87.2528,"MEAN_ANOMALY":273.1346,"EPHEMERIS_TYPE":0,"NORAD_CAT_ID":69409,"ELEMENT_SET_NO":999,"REV_AT_EPOCH":558,"BSTAR":-1.5443208,"MEAN_MOTION_DOT":-0.01979719,"MEAN_MOTION_DDOT":0},{"OBJECT_NAME":"QIANFAN-192","OBJECT_ID":"2026-125K","EPOCH":"2026-07-14T02:11:11.758848","CLASSIFICATION_TYPE":"U","MEAN_MOTION":13.97701652,"ECCENTRICITY":0.00176781,"INCLINATION":88.9946,"RA_OF_ASC_NODE":277.3979,"ARG_OF_PERICENTER":70.8461,"MEAN_ANOMALY":289.4628,"EPHEMERIS_TYPE":0,"NORAD_CAT_ID":69410,"ELEMENT_SET_NO":999,"REV_AT_EPOCH":551,"BSTAR":-1.6125483,"MEAN_MOTION_DOT":-0.02111332,"MEAN_MOTION_DDOT":0}]}
