QIANFAN-177             
1 69394U 26124N   26195.20160088 -.00000010  00000+0 -16184-4 0  9990
2 69394  88.9987 358.9748 0007531  69.8144 290.3844 13.99755302  5643
QIANFAN-178             
1 69395U 26124P   26195.69770393 -.01919560  00000+0 -14289+1 0  9990
2 69395  88.9986 358.9183 0008640  81.6618 278.5540 13.98827236  5710
QIANFAN-179             
1 69396U 26124Q   26195.61106363 -.02052062  00000+0 -15512+1 0  9999
2 69396  88.9990 358.9250 0009161  72.5882 287.6297 13.98222332  5707
QIANFAN-180             
1 69397U 26124R   26195.61322396 -.02076079  00000+0 -16181+1 0  9993
2 69397  88.9991 358.9243 0012084  80.2602 279.9939 13.96512885  5705
QIANFAN-181             
1 69398U 26124S   26195.71082747 -.02012126  00000+0 -18326+1 0  9994
2 69398  89.0002 358.9591 0003357   7.9238 352.1987 13.87412831  5696
QIANFAN-182             
1 69399U 26124T   26195.87470366  .00000030  00000+0  13267-4 0  9990
2 69399  89.0009 358.9253 0007063  72.6074 287.5873 13.92327442  5711
QIANFAN-183             
1 69401U 26125A   26195.68628216 -.01924605  00000+0 -15266+1 0  9996
2 69401  88.9941 277.3567 0022278  90.8268 269.5461 13.95115840  5580
QIANFAN-184             
1 69402U 26125B   26195.89193657  .00000040  00000+0  18602-4 0  9992
2 69402  88.9951 277.3322 0018780  79.7982 280.5312 13.96804876  5610
QIANFAN-185             
1 69403U 26125C   26195.60355142 -.01909252  00000+0 -13576+1 0  9998
2 69403  88.9942 277.3631 0015817  78.8045 281.4911 14.01348376  5577
QIANFAN-186             
1 69404U 26125D   26195.73408877 -.01927005  00000+0 -15765+1 0  9995
2 69404  88.9949 277.3453 0020146  81.1281 279.2174 13.93370700  5591
QIANFAN-187             
1 69405U 26125E   26195.71192602 -.01994843  00000+0 -15685+1 0  9995
2 69405  88.9938 277.3415 0024859  82.5381 277.8619 13.95734098  5593
QIANFAN-188             
1 69406U 26125F   26195.68365666 -.01947927  00000+0 -14941+1 0  9999
2 69406  88.9934 277.3375 0024279  88.9691 271.4268 13.97058883  5598
QIANFAN-189             
1 69407U 26125G   26195.91420523  .00000009  00000+0 -33756-5 0  9999
2 69407  88.9950 277.3159 0018687  82.2614 278.0686 13.99491866  5619
QIANFAN-190             
1 69408U 26125H   26195.90987326  .00000004  00000+0 -71598-5 0  9999
2 69408  88.9949 277.3162 0019313  82.6346 277.7026 13.98343830  5626
QIANFAN-191             
1 69409U 26125J   26195.60332735 -.01979719  00000+0 -15443+1 0  9997
2 69409  88.9941 277.3443 0023573  87.2528 273.1346 13.96169864  5588
QIANFAN-192             
1 69410U 26125K   26195.09110832 -.02111332  00000+0 -16125+1 0  9992
2 69410  88.9946 277.3979 0017678  70.8461 289.4628 13.97701652  5516
